{"type": "FeatureCollection", "features": [ {"type": "Feature", "properties": {"norad_id": 66996, "name": "2025-292D", "group": "last-30-days", "lat": 19.140229267440446, "lon": -113.52504354508608, "alt_km": 554.2746827312903, "timestamp": "2025-12-17T07:00:45.614813+00:00", "meta": {"OBJECT_NAME": "2025-292D", "OBJECT_ID": "2025-292D", "EPOCH": "2025-12-16T19:07:38.827488", "MEAN_MOTION": 15.0462476, "ECCENTRICITY": 0.00130199, "INCLINATION": 97.6529, "RA_OF_ASC_NODE": 63.3097, "ARG_OF_PERICENTER": 260.9745, "MEAN_ANOMALY": 99.0007, "EPHEMERIS_TYPE": 0, "CLASSIFICATION_TYPE": "U", "NORAD_CAT_ID": 66996, "ELEMENT_SET_NO": 999, "REV_AT_EPOCH": 100, "BSTAR": 0.00021639716, "MEAN_MOTION_DOT": 2.983e-05, "MEAN_MOTION_DDOT": 0}, "tle": {"line1": "1 66996U 25292D   25350.79697717  .00002983  00000+0  21640-3 0  9991", "line2": "2 66996  97.6529  63.3097 0013019 260.9745  99.0007 15.04624760  1002"}}, "geometry": {"type": "Point", "coordinates": [-113.52504354508608, 19.140229267440446]}}, {"type": "Feature", "properties": {"norad_id": 66997, "name": "2025-292E", "group": "last-30-days", "lat": 17.127551792602024, "lon": -113.8218017277439, "alt_km": 554.1752471806558, "timestamp": "2025-12-17T07:00:45.614823+00:00", "meta": {"OBJECT_NAME": "2025-292E", "OBJECT_ID": "2025-292E", "EPOCH": "2025-12-16T22:18:39.792672", "MEAN_MOTION": 15.04708509, "ECCENTRICITY": 0.00133723, "INCLINATION": 97.655, "RA_OF_ASC_NODE": 63.4435, "ARG_OF_PERICENTER": 261.3337, "MEAN_ANOMALY": 98.6374, "EPHEMERIS_TYPE": 0, "CLASSIFICATION_TYPE": "U", "NORAD_CAT_ID": 66997, "ELEMENT_SET_NO": 999, "REV_AT_EPOCH": 101, "BSTAR": 0.00024943605, "MEAN_MOTION_DOT": 3.456e-05, "MEAN_MOTION_DDOT": 0}, "tle": {"line1": "1 66997U 25292E   25350.92962723  .00003456  00000+0  24944-3 0  9995", "line2": "2 66997  97.6550  63.4435 0013372 261.3337  98.6374 15.04708509  1015"}}, "geometry": {"type": "Point", "coordinates": [-113.8218017277439, 17.127551792602024]}}, {"type": "Feature", "properties": {"norad_id": 66998, "name": "2025-292F", "group": "last-30-days", "lat": 13.231397965977754, "lon": -114.38139371338154, "alt_km": 553.8345434582798, "timestamp": "2025-12-17T07:00:45.614833+00:00", "meta": {"OBJECT_NAME": "2025-292F", "OBJECT_ID": "2025-292F", "EPOCH": "2025-12-16T22:17:40.033248", "MEAN_MOTION": 15.04870993, "ECCENTRICITY": 0.00144781, "INCLINATION": 97.657, "RA_OF_ASC_NODE": 63.4458, "ARG_OF_PERICENTER": 262.1834, "MEAN_ANOMALY": 97.7749, "EPHEMERIS_TYPE": 0, "CLASSIFICATION_TYPE": "U", "NORAD_CAT_ID": 66998, "ELEMENT_SET_NO": 999, "REV_AT_EPOCH": 102, "BSTAR": 0.00032446508, "MEAN_MOTION_DOT": 4.536e-05, "MEAN_MOTION_DDOT": 0}, "tle": {"line1": "1 66998U 25292F   25350.92893557  .00004536  00000+0  32447-3 0  9991", "line2": "2 66998  97.6570  63.4458 0014478 262.1834  97.7749 15.04870993  1026"}}, "geometry": {"type": "Point", "coordinates": [-114.38139371338154, 13.231397965977754]}}, {"type": "Feature", "properties": {"norad_id": 66999, "name": "2025-292G", "group": "last-30-days", "lat": 11.62105014399293, "lon": -114.60702880500838, "alt_km": 553.9462490799406, "timestamp": "2025-12-17T07:00:45.614843+00:00", "meta": {"OBJECT_NAME": "2025-292G", "OBJECT_ID": "2025-292G", "EPOCH": "2025-12-16T22:17:15.601920", "MEAN_MOTION": 15.04934765, "ECCENTRICITY": 0.00140064, "INCLINATION": 97.6579, "RA_OF_ASC_NODE": 63.4469, "ARG_OF_PERICENTER": 264.336, "MEAN_ANOMALY": 95.6269, "EPHEMERIS_TYPE": 0, "CLASSIFICATION_TYPE": "U", "NORAD_CAT_ID": 66999, "ELEMENT_SET_NO": 999, "REV_AT_EPOCH": 102, "BSTAR": 0.00032604468, "MEAN_MOTION_DOT": 4.566e-05, "MEAN_MOTION_DDOT": 0}, "tle": {"line1": "1 66999U 25292G   25350.92865280  .00004566  00000+0  32604-3 0  9992", "line2": "2 66999  97.6579  63.4469 0014006 264.3360  95.6269 15.04934765  1025"}}, "geometry": {"type": "Point", "coordinates": [-114.60702880500838, 11.62105014399293]}}, {"type": "Feature", "properties": {"norad_id": 67000, "name": "2025-292H", "group": "last-30-days", "lat": 11.621517604064731, "lon": -114.60715156819599, "alt_km": 553.9716165545797, "timestamp": "2025-12-17T07:00:45.614857+00:00", "meta": {"OBJECT_NAME": "2025-292H", "OBJECT_ID": "2025-292H", "EPOCH": "2025-12-16T11:07:02.569152", "MEAN_MOTION": 15.04930133, "ECCENTRICITY": 0.00139568, "INCLINATION": 97.658, "RA_OF_ASC_NODE": 62.9852, "ARG_OF_PERICENTER": 266.081, "MEAN_ANOMALY": 93.882, "EPHEMERIS_TYPE": 0, "CLASSIFICATION_TYPE": "U", "NORAD_CAT_ID": 67000, "ELEMENT_SET_NO": 999, "REV_AT_EPOCH": 82, "BSTAR": 0.00033603551, "MEAN_MOTION_DOT": 4.707e-05, "MEAN_MOTION_DDOT": 0}, "tle": {"line1": "1 67000U 25292H   25350.46322418  .00004707  00000+0  33604-3 0  9994", "line2": "2 67000  97.6580  62.9852 0013956 266.0810  93.8820 15.04930133   828"}}, "geometry": {"type": "Point", "coordinates": [-114.60715156819599, 11.621517604064731]}}, {"type": "Feature", "properties": {"norad_id": 67001, "name": "2025-292J", "group": "last-30-days", "lat": 26.4549949879179, "lon": -112.36132376497117, "alt_km": 554.050603663748, "timestamp": "2025-12-17T07:00:45.614867+00:00", "meta": {"OBJECT_NAME": "2025-292J", "OBJECT_ID": "2025-292J", "EPOCH": "2025-12-16T22:21:02.425248", "MEAN_MOTION": 15.04349032, "ECCENTRICITY": 0.00142288, "INCLINATION": 97.657, "RA_OF_ASC_NODE": 63.4427, "ARG_OF_PERICENTER": 252.9782, "MEAN_ANOMALY": 106.9885, "EPHEMERIS_TYPE": 0, "CLASSIFICATION_TYPE": "U", "NORAD_CAT_ID": 67001, "ELEMENT_SET_NO": 999, "REV_AT_EPOCH": 102, "BSTAR": 0.00033183716, "MEAN_MOTION_DOT": 4.576e-05, "MEAN_MOTION_DDOT": 0}, "tle": {"line1": "1 67001U 25292J   25350.93127807  .00004576  00000+0  33184-3 0  9999", "line2": "2 67001  97.6570  63.4427 0014228 252.9782 106.9885 15.04349032  1029"}}, "geometry": {"type": "Point", "coordinates": [-112.36132376497117, 26.4549949879179]}}, {"type": "Feature", "properties": {"norad_id": 67002, "name": "ZK-1A R/B", "group": "last-30-days", "lat": 4.757227465554873, "lon": 63.79237500153828, "alt_km": 261.11025535994395, "timestamp": "2025-12-17T07:00:45.614880+00:00", "meta": {"OBJECT_NAME": "ZK-1A R/B", "OBJECT_ID": "2025-292K", "EPOCH": "2025-12-16T23:16:33.769920", "MEAN_MOTION": 15.55956857, "ECCENTRICITY": 0.02151858, "INCLINATION": 97.7239, "RA_OF_ASC_NODE": 64.0908, "ARG_OF_PERICENTER": 350.4268, "MEAN_ANOMALY": 9.2912, "EPHEMERIS_TYPE": 0, "CLASSIFICATION_TYPE": "U", "NORAD_CAT_ID": 67002, "ELEMENT_SET_NO": 999, "REV_AT_EPOCH": 105, "BSTAR": 0.00073353938, "MEAN_MOTION_DOT": 0.00151292, "MEAN_MOTION_DDOT": 8.155085e-06}, "tle": {"line1": "1 67002U 25292K   25350.96983530  .00151292  81551-5  73354-3 0  9993", "line2": "2 67002  97.7239  64.0908 0215185 350.4268   9.2912 15.55956857  1056"}}, "geometry": {"type": "Point", "coordinates": [63.79237500153828, 4.757227465554873]}}, {"type": "Feature", "properties": {"norad_id": 67059, "name": "HULIANWANG DIGUI 16A", "group": "last-30-days", "lat": 6.925919083034036, "lon": 167.16064714200226, "alt_km": 805.9059104750067, "timestamp": "2025-12-17T07:00:45.614890+00:00", "meta": {"OBJECT_NAME": "HULIANWANG DIGUI 16A", "OBJECT_ID": "2025-295A", "EPOCH": "2025-12-12T05:06:27.347328", "MEAN_MOTION": 14.25879966, "ECCENTRICITY": 0.00136284, "INCLINATION": 50.0035, "RA_OF_ASC_NODE": 14.4753, "ARG_OF_PERICENTER": 247.7813, "MEAN_ANOMALY": 112.1656, "EPHEMERIS_TYPE": 0, "CLASSIFICATION_TYPE": "U", "NORAD_CAT_ID": 67059, "ELEMENT_SET_NO": 999, "REV_AT_EPOCH": 4, "BSTAR": 3.434713e-06, "MEAN_MOTION_DOT": -1.52e-06, "MEAN_MOTION_DDOT": 0}, "tle": {"line1": "1 67059U 25295A   25346.21281652 -.00000152  00000+0  34347-5 0  9991", "line2": "2 67059  50.0035  14.4753 0013628 247.7813 112.1656 14.25879966    41"}}, "geometry": {"type": "Point", "coordinates": [167.16064714200226, 6.925919083034036]}}, {"type": "Feature", "properties": {"norad_id": 67060, "name": "HULIANWANG DIGUI 16B", "group": "last-30-days", "lat": 4.843228282265584, "lon": 168.9304862921812, "alt_km": 804.7290446554189, "timestamp": "2025-12-17T07:00:45.614902+00:00", "meta": {"OBJECT_NAME": "HULIANWANG DIGUI 16B", "OBJECT_ID": "2025-295B", "EPOCH": "2025-12-12T05:06:25.468992", "MEAN_MOTION": 14.26022254, "ECCENTRICITY": 0.0013423, "INCLINATION": 50.0012, "RA_OF_ASC_NODE": 14.4776, "ARG_OF_PERICENTER": 244.6732, "MEAN_ANOMALY": 115.2792, "EPHEMERIS_TYPE": 0, "CLASSIFICATION_TYPE": "U", "NORAD_CAT_ID": 67060, "ELEMENT_SET_NO": 999, "REV_AT_EPOCH": 4, "BSTAR": 4.398892e-06, "MEAN_MOTION_DOT": -1.5e-06, "MEAN_MOTION_DDOT": 0}, "tle": {"line1": "1 67060U 25295B   25346.21279478 -.00000150  00000+0  43989-5 0  9996", "line2": "2 67060  50.0012  14.4776 0013423 244.6732 115.2792 14.26022254    48"}}, "geometry": {"type": "Point", "coordinates": [168.9304862921812, 4.843228282265584]}}, {"type": "Feature", "properties": {"norad_id": 67062, "name": "HULIANWANG DIGUI 16D", "group": "last-30-days", "lat": 6.264519697689688, "lon": 167.72347051954284, "alt_km": 806.2127348475051, "timestamp": "2025-12-17T07:00:45.614912+00:00", "meta": {"OBJECT_NAME": "HULIANWANG DIGUI 16D", "OBJECT_ID": "2025-295D", "EPOCH": "2025-12-12T05:06:24.477120", "MEAN_MOTION": 14.25916921, "ECCENTRICITY": 0.00124974, "INCLINATION": 50.0052, "RA_OF_ASC_NODE": 14.4731, "ARG_OF_PERICENTER": 251.2247, "MEAN_ANOMALY": 108.7311, "EPHEMERIS_TYPE": 0, "CLASSIFICATION_TYPE": "U", "NORAD_CAT_ID": 67062, "ELEMENT_SET_NO": 999, "REV_AT_EPOCH": 4, "BSTAR": 3.753899e-06, "MEAN_MOTION_DOT": -1.51e-06, "MEAN_MOTION_DDOT": 0}, "tle": {"line1": "1 67062U 25295D   25346.21278330 -.00000151  00000+0  37539-5 0  9999", "line2": "2 67062  50.0052  14.4731 0012497 251.2247 108.7311 14.25916921    46"}}, "geometry": {"type": "Point", "coordinates": [167.72347051954284, 6.264519697689688]}}]}